*******************************************************************************
 Revised: July 31, 2013                  Sun                                 10

 PHYSICAL PROPERTIES (updated 2024-Oct-30):
  GM, km^3/s^2          = 132712440041.93938  Mass, 10^24 kg        = ~1988410
  Vol. mean radius, km  = 695700              Volume, 10^12 km^3    = 1412000
  Solar radius (IAU2015)= 695700 km           Mean density, g/cm^3  = 1.408
  Radius (photosphere)  = 696500 km           Angular diam at 1 AU  = 1919.3"
  Photosphere temp., K  = 6600 (bottom)       Photosphere temp., K  = 4400(top)
  Photospheric depth    = ~500 km             Chromospheric depth   = ~2500 km
  Flatness, f           = 0.00005             Adopted sid. rot. per.= 25.38 d
  Surface gravity       =  274.0 m/s^2        Escape speed, km/s    =  617.7
  Pole (RA,DEC), deg.   = (286.13, 63.87)     Obliquity to ecliptic = 7.25 deg.
  Solar constant (1 AU) = 1367.6 W/m^2        Luminosity, 10^24 J/s = 382.8
  Mass-energy conv rate = 4.260 x 10^9 kg/s   Effective temp, K     = 5772
  Sunspot cycle         = 11.4 yr             Cycle 24 sunspot min. = 2008 A.D.

  Motion relative to nearby stars = apex : R.A.= 271 deg.; DEC.= +30 deg.
                                    speed: 19.4 km/s (0.0112 au/day)
  Motion relative to 2.73K BB/CBR = apex : l= 264.7 +- 0.8; b= 48.2 +- 0.5 deg.
                                    speed: 369 +-11 km/s
*******************************************************************************


*******************************************************************************
Ephemeris / WWW_USER Tue Dec 23 07:03:30 2025 Pasadena, USA      / Horizons
*******************************************************************************
Target body name: Sun (10)                        {source: DE441}
Center body name: Solar System Barycenter (0)     {source: DE441}
Center-site name: BODY CENTER
*******************************************************************************
Start time      : A.D. 2006-Jun-30 00:00:00.0000 TDB
Stop  time      : A.D. 2025-Dec-23 00:00:00.0000 TDB
Step-size       : 1440 minutes
*******************************************************************************
Center geodetic : 0.0, 0.0, 0.0                   {E-lon(deg),Lat(deg),Alt(km)}
Center cylindric: 0.0, 0.0, 0.0                   {E-lon(deg),Dxy(km),Dz(km)}
Center radii    : (undefined)
Output units    : AU-D
Calendar mode   : Mixed Julian/Gregorian
Output type     : GEOMETRIC cartesian states
Output format   : 2x (pos. & vel. w/uncertainties: XYZ)
Reference frame : Ecliptic of J2000.0
*******************************************************************************
            JDTDB             Calendar Date (TDB),                      X,                      Y,                      Z,                     VX,                     VY,                     VZ,             X_s,             Y_s,             Z_s,            VX_s,            VY_s,            VZ_s,
********************************************************************************************************************************************************************************************************************************************************************************************************
$$SOE
2455302.500000000, A.D. 2010-Apr-16 00:00:00.0000, -4.008068501061192E-03,  2.322047103828567E-03,  1.064774628966260E-05, -1.956141796668003E-06, -5.915478136533160E-06,  4.579486387365877E-08,            n.a.,            n.a.,            n.a.,            n.a.,            n.a.,            n.a.,
2455303.500000000, A.D. 2010-Apr-17 00:00:00.0000, -4.010020107210886E-03,  2.316130535281709E-03,  1.069346510120495E-05, -1.947073501438437E-06, -5.917661724788682E-06,  4.564265045224051E-08,            n.a.,            n.a.,            n.a.,            n.a.,            n.a.,            n.a.,
2455304.500000000, A.D. 2010-Apr-18 00:00:00.0000, -4.011962653842151E-03,  2.310211775030111E-03,  1.073903138069788E-05, -1.938022549845127E-06, -5.919861362716424E-06,  4.548980806880112E-08,            n.a.,            n.a.,            n.a.,            n.a.,            n.a.,            n.a.,
2455305.500000000, A.D. 2010-Apr-19 00:00:00.0000, -4.013896157713194E-03,  2.304290807557611E-03,  1.078444452696346E-05, -1.928987813878254E-06, -5.922076000394330E-06,  4.533639498561266E-08,            n.a.,            n.a.,            n.a.,            n.a.,            n.a.,            n.a.,
2455306.500000000, A.D. 2010-Apr-20 00:00:00.0000, -4.015820634574938E-03,  2.298367618343582E-03,  1.082970400418670E-05, -1.919968399311769E-06, -5.924304699452961E-06,  4.518248272352099E-08,            n.a.,            n.a.,            n.a.,            n.a.,            n.a.,            n.a.,
2455307.500000000, A.D. 2010-Apr-21 00:00:00.0000, -4.017736099382533E-03,  2.292442193744478E-03,  1.087480935253532E-05, -1.910963601911492E-06, -5.926546645523774E-06,  4.502815096932751E-08,            n.a.,            n.a.,            n.a.,            n.a.,            n.a.,            n.a.,
2455308.500000000, A.D. 2010-Apr-22 00:00:00.0000, -4.019642566465473E-03,  2.286514520866650E-03,  1.091976019421492E-05, -1.901972868534526E-06, -5.928801153583438E-06,  4.487348351077325E-08,            n.a.,            n.a.,            n.a.,            n.a.,            n.a.,            n.a.,
2455309.500000000, A.D. 2010-Apr-23 00:00:00.0000, -4.021540049661290E-03,  2.280584587436543E-03,  1.096455623590423E-05, -1.892995763131093E-06, -5.931067668164925E-06,  4.471856503924514E-08,            n.a.,            n.a.,            n.a.,            n.a.,            n.a.,            n.a.,
2455310.500000000, A.D. 2010-Apr-24 00:00:00.0000, -4.023428562417601E-03,  2.274652381672582E-03,  1.100919726836697E-05, -1.884031937399307E-06, -5.933345759974891E-06,  4.456347867176247E-08,            n.a.,            n.a.,            n.a.,            n.a.,            n.a.,            n.a.,
2455311.500000000, A.D. 2010-Apr-25 00:00:00.0000, -4.025308117867003E-03,  2.268717892161793E-03,  1.105368316389398E-05, -1.875081105791268E-06, -5.935635119928958E-06,  4.440830408221226E-08,            n.a.,            n.a.,            n.a.,            n.a.,            n.a.,            n.a.,
2455312.500000000, A.D. 2010-Apr-26 00:00:00.0000, -4.027178728879086E-03,  2.262781107743485E-03,  1.109801387216117E-05, -1.866143024725062E-06, -5.937935550992275E-06,  4.425311619727441E-08,            n.a.,            n.a.,            n.a.,            n.a.,            n.a.,            n.a.,
2455313.500000000, A.D. 2010-Apr-27 00:00:00.0000, -4.029040408093394E-03,  2.256842017401501E-03,  1.114218941497407E-05, -1.857217474856450E-06, -5.940246959993793E-06,  4.409798417129595E-08,            n.a.,            n.a.,            n.a.,            n.a.,            n.a.,            n.a.,
2455314.500000000, A.D. 2010-Apr-28 00:00:00.0000, -4.030893167936027E-03,  2.250900610164703E-03,  1.118620988011844E-05, -1.848304246586832E-06, -5.942569348223321E-06,  4.394297076143299E-08,            n.a.,            n.a.,            n.a.,            n.a.,            n.a.,            n.a.,
2455315.500000000, A.D. 2010-Apr-29 00:00:00.0000, -4.032737020623284E-03,  2.244956875017300E-03,  1.123007541476012E-05, -1.839403128058093E-06, -5.944902802255538E-06,  4.378813190647850E-08,            n.a.,            n.a.,            n.a.,            n.a.,            n.a.,            n.a.,
2455316.500000000, A.D. 2010-Apr-30 00:00:00.0000, -4.034571978154298E-03,  2.239010800818093E-03,  1.127378621849421E-05, -1.830513895316892E-06, -5.947247484826521E-06,  4.363351650230102E-08,            n.a.,            n.a.,            n.a.,            n.a.,            n.a.,            n.a.,
2455317.500000000, A.D. 2010-May-01 00:00:00.0000, -4.036398052294792E-03,  2.233062376228768E-03,  1.131734253625101E-05, -1.821636304305787E-06, -5.949603625993909E-06,  4.347916631930070E-08,            n.a.,            n.a.,            n.a.,            n.a.,            n.a.,            n.a.,
2455318.500000000, A.D. 2010-May-02 00:00:00.0000, -4.038215254553622E-03,  2.227111589650825E-03,  1.136074465117379E-05, -1.812770084367483E-06, -5.951971514695823E-06,  4.332511602508949E-08,            n.a.,            n.a.,            n.a.,            n.a.,            n.a.,            n.a.,
2455319.500000000, A.D. 2010-May-03 00:00:00.0000, -4.040023596153453E-03,  2.221158429170740E-03,  1.140399287756211E-05, -1.803914933004204E-06, -5.954351490749286E-06,  4.317139328546330E-08,            n.a.,            n.a.,            n.a.,            n.a.,            n.a.,            n.a.,
2455320.500000000, A.D. 2010-May-04 00:00:00.0000, -4.041823087996745E-03,  2.215202882512894E-03,  1.144708755394397E-05, -1.795070511671068E-06, -5.956743937305920E-06,  4.301801892199378E-08,            n.a.,            n.a.,            n.a.,            n.a.,            n.a.,            n.a.,
2455321.500000000, A.D. 2010-May-05 00:00:00.0000, -4.043613740627957E-03,  2.209244936999823E-03,  1.149002903632780E-05, -1.786236442415752E-06, -5.959149273763319E-06,  4.286500710931801E-08,            n.a.,            n.a.,            n.a.,            n.a.,            n.a.,            n.a.,
2455322.500000000, A.D. 2010-May-06 00:00:00.0000, -4.045395564192751E-03,  2.203284579519329E-03,  1.153281769166550E-05, -1.777412305206593E-06, -5.961567949114440E-06,  4.271236559919049E-08,            n.a.,            n.a.,            n.a.,            n.a.,            n.a.,            n.a.,
2455323.500000000, A.D. 2010-May-07 00:00:00.0000, -4.047168568394820E-03,  2.197321796498041E-03,  1.157545389154960E-05, -1.768597635817721E-06, -5.964000435704956E-06,  4.256009596187994E-08,            n.a.,            n.a.,            n.a.,            n.a.,            n.a.,            n.a.,
